{"fetched_at":"2026-07-17T06:38:34.818Z","source":"https://celestrak.org/NORAD/elements/gp.php?NAME=SENTINEL&FORMAT=JSON","constellation":"sentinel-6","records":[{"OBJECT_NAME":"SENTINEL-6A","OBJECT_ID":"2020-086A","EPOCH":"2026-07-16T16:13:49.060128","CLASSIFICATION_TYPE":"U","MEAN_MOTION":12.80930202,"ECCENTRICITY":0.0007781,"INCLINATION":66.0412,"RA_OF_ASC_NODE":73.8043,"ARG_OF_PERICENTER":269.6984,"MEAN_ANOMALY":90.314,"EPHEMERIS_TYPE":0,"NORAD_CAT_ID":46984,"ELEMENT_SET_NO":999,"REV_AT_EPOCH":26410,"BSTAR":0.000096185,"MEAN_MOTION_DOT":-3.9e-7,"MEAN_MOTION_DDOT":0},{"OBJECT_NAME":"SENTINEL-6B","OBJECT_ID":"2025-264A","EPOCH":"2026-07-16T16:14:19.128192","CLASSIFICATION_TYPE":"U","MEAN_MOTION":12.80930175,"ECCENTRICITY":0.0007842,"INCLINATION":66.0412,"RA_OF_ASC_NODE":73.9297,"ARG_OF_PERICENTER":268.5768,"MEAN_ANOMALY":91.4349,"EPHEMERIS_TYPE":0,"NORAD_CAT_ID":66514,"ELEMENT_SET_NO":999,"REV_AT_EPOCH":3094,"BSTAR":0.000087365,"MEAN_MOTION_DOT":-4.1e-7,"MEAN_MOTION_DDOT":0}]}
